GLOBALSTAR M023         
1 25621U 99004A   25297.66237887 -.00000120  00000+0 -86830-4 0  9993
2 25621  52.0133  19.1833 0010332  55.5241 108.8794 12.62507587232083
GLOBALSTAR M040         
1 25622U 99004B   25297.68788852 -.00000032  00000+0  39899-3 0  9992
2 25622  51.9946  23.4515 0000342 349.2245 174.9050 12.62020647231609
GLOBALSTAR M036         
1 25623U 99004C   25297.62267742 -.00000034  00000+0  71633-3 0  9991
2 25623  51.9957 259.1533 0010608 300.3193 230.5268 11.86612525194342
GLOBALSTAR M038         
1 25624U 99004D   25297.78899647 -.00000075  00000+0  16741-3 0  9998
2 25624  51.9984  58.3278 0001198 344.9232 170.6668 12.32534400218353
GLOBALSTAR M022         
1 25649U 99012A   25297.52208284 -.00000031  00000+0  66669-3 0  9993
2 25649  52.0041 299.3097 0002879  67.5524 110.0987 12.02504928191936
GLOBALSTAR M041         
1 25650U 99012B   25297.85142854 -.00000119  00000+0 -43893-3 0  9993
2 25650  52.0004 183.8179 0000793 182.9395 177.1437 11.96680608193800
GLOBALSTAR M046         
1 25651U 99012C   25297.62929419 -.00000082  00000+0  79344-4 0  9998
2 25651  52.0054 244.4266 0001971 135.2813  35.9131 12.09415190199324
GLOBALSTAR M037         
1 25652U 99012D   25297.85099794 -.00000079  00000+0  14067-3 0  9994
2 25652  51.9983 149.1816 0002921 103.2908 269.5942 12.62453098227653
